#dP2020  2  1 10  0  0.00000000     576   u+U IGS14 FIT  WHU
## 2090 554400.00000000   300.00000000 58880 0.4166666666667
+  101   G01G02G03G04G05G06G07G08G09G10G11G12G13G14G15G16G17
+        G19G20G21G22G23G24G25G26G27G28G29G30G31G32R01R02R03
+        R04R05R07R08R11R12R13R14R15R16R17R18R19R20R21R22R23
+        C01C02C03C04C06C08C09C10C11C12C13C14C19C20C21C22C23
+        C24C25C26C27C28C29C30C33C34C35C36E01E02E03E04E05E07
+        E08E09E11E12E13E15E19E21E24E25E26E27E30E31E33E36  0
++         4  4  4  4  4  4  4  3  4  5  3  3  4  4  4  3  4
++         4  3  4  3  4  3  3  4  3  3  4  3  3  3  5  4  4
++         4  4  5  4  3  4  4  3  4  3  4  4  4  4  4  4  3
++        10  9 10  9  9 10 10 10 10 10 10 10 10 10 10 10 10
++        10 10  9 10 10 10 10 10 10 10 10 11 12 11 12 11 11
++        12  9 12 13 11 10 12 11 12 10 10 11  9 12 11 11  0
%c M  cc GPS ccc cccc cccc cccc cccc ccccc ccccc ccccc ccccc
%c cc cc ccc ccc cccc cccc cccc cccc ccccc ccccc ccccc ccccc
%f  1.2500000  1.025000000  0.00000000000  0.000000000000000
%f  0.0000000  0.000000000  0.00000000000  0.000000000000000
%i    0    0    0    0      0      0      0      0         0
%i    0    0    0    0      0      0      0      0         0
/* GNSS RESEARCH CENTER, WUHAN UNIVERSITY (WHU), P. R. CHINA
/* POSITION AND NAVIGATION DATA ANALYST (PANDA) SOFTWARE    
/*
/* PCV:IGS14_2085 OL/AL:FES2004  NONE     NN ORB:CoM CLK:CoN
*  2020  2  2 14  0  0.00000000
PG01 -14224.913524   4030.637700  21844.727748   -282.139217               P   P
PG02  13570.070525  18816.595247 -12372.555318   -397.409671               P   P
PG03 -22409.521096  12059.193491   7376.883178    -85.488947               P   P
PG04 -22316.529661   1821.227509 -14298.843198    -43.162011               P   P
PG05  15585.469573   5994.610178 -20827.162806     -6.992136               P   P
PG06   6505.718253  25558.225844  -2927.877238   -198.350166               P   P
PG07  -6974.939275  20771.938365 -14377.677204   -205.641256               P   P
PG08 -25686.502946  -5511.462661   4745.617081    -22.357373               P   P
PG09 -14282.313704  10118.166709 -20040.147445   -146.543895               P   P
PG10   5677.954549 -19843.433359  16660.704092   -231.233279               P   P
PG11 -19156.779499  -3191.454349  17490.434643   -372.581248               P   P
PG12  22935.797714  -8225.772553  10135.784767    155.648508               P   P
PG13  22959.992777  13321.164552  -1901.649179    -15.697017               P   P
PG14 -14321.192622 -17583.166484  14305.003526    -34.977675               P   P
PG15  26109.295304   2931.158959   4790.478575   -254.347332               P   P
PG16 -14657.029121  -7156.911041 -21257.962778   -120.150474               P   P
PG17   4176.677969  16735.459247  20640.146772    209.252438               P   P
PG19  12112.562266  17477.281302  15617.915359   -204.129619               P   P
PG20  13354.304817 -21801.277620   6699.561222    527.845899               P   P
PG21   3441.356755 -22986.519010 -12270.806555    -46.816262               P   P
PG22 -21467.684721   5806.211544  14656.162348   -783.718411               P   P
PG23 -22033.910584   3491.989062 -14339.893789   -139.047264               P   P
PG24  15534.996442  -2201.625842  21250.809333     -8.451760               P   P
PG25  19744.674413 -17512.778789  -1188.248497    -14.462609               P   P
PG26  -6864.034700 -14333.987627 -21283.669404    140.120818               P   P
PG27 -22754.961465 -12675.581792  -6143.385739   -199.380037               P   P
PG28  -5912.968495  18992.011025  18262.053108    741.690834               P   P
PG29  15347.367153  -7853.553481 -20240.723034    -23.003735               P   P
PG30    192.356961  26050.308820  -4568.007730   -143.683854               P   P
PG31  -7639.314274 -24538.691628  -5692.880914    -20.584926               P   P
PG32  -5724.645352 -16872.445727  19805.296186    201.746863               P   P
PR01   9050.481665   9042.541677 -22071.383745     56.482938               P   P
PR02  24210.823991   -552.341227  -7885.661650    409.982606               P   P
PR03  21955.871959  -8689.833748   9622.038597      9.313414               P   P
PR04   7253.353198 -11624.429720  21536.869151     37.405150               P   P
PR05 -11591.048149  -8028.928394  21268.677957     44.257452               P   P
PR07 -21744.805498   8820.365438 -10021.439628    -32.752883               P   P
PR08  -7333.081514  11695.303202 -21404.414200    -50.345507               P   P
PR11  -6291.647777  24292.947148   4470.278131    -12.128127               P   P
PR12   3292.669030  17131.182869  18645.874399    102.222126               P   P
PR13  11561.493475   -504.752655  22711.263794    -34.316148               P   P
PR14  12995.591950 -17450.929922  13327.466811     47.695629               P   P
PR15   6891.842905 -24291.343044  -3573.856288    105.810569               P   P
PR16  -4042.878065 -16663.674037 -18857.426394     -1.308357               P   P
PR17  10383.725207  -3955.304337 -22947.284877    297.583130               P   P
PR18  -2810.968299 -16732.868467 -19048.383515     23.696904               P   P
PR19 -13710.184329 -20856.656063  -5255.326653    -77.110078               P   P
PR20 -17658.363734 -12191.068735  13844.411014   -403.082298               P   P
PR21  -9718.623551   4707.056598  23116.045214   -102.297862               P   P
PR22   4847.643655  18014.262372  17344.709454    -12.374254               P   P
PR23  16717.441669  19227.413065  -1194.330306    283.791482               P   P
PC01 -32277.627284  27102.548987    978.940439    155.104510               P   P
PC02   4353.565696  41950.110606   -364.701574    572.115532               P   P
PC03 -14851.850619  39430.224093    515.155726   -342.478536               P   P
PC04 -39599.683543  14461.593853    687.299501   -423.332846               P   P
PC06 -11585.592590  21739.744747 -33898.351627    252.338687               P   P
PC08  -7330.775098  35708.960087  21562.150140   -102.445025               P   P
PC09   2242.745349  26501.016841 -32399.949439    306.759026               P   P
PC10 -10586.522008  33893.314633  22597.530458   -619.677739               P   P
PC11  20878.363376  18524.482056   1174.820877   -156.780199               P   P
PC12   6864.218572  20611.841852  17571.083130    316.101694               P   P
PC13   1038.494152  41210.696436   9573.171485    244.135885               P   P
PC14  16606.511095   8954.538027 -20551.445340    127.137483               P   P
PC19 -23330.452318  -2185.782652  15168.923580    316.051254               P   P
PC20  -7837.856400 -13992.470786  22849.940067   -647.902846               P   P
PC21 -12845.432315  17827.241522 -17177.522086    -35.730647               P   P
PC22 -25552.175726  11078.457519  -1527.288650   -780.655284               P   P
PC23  15841.505362 -13024.415021  18921.768709   -880.987674               P   P
PC24   4719.119944  24580.976809  12360.298583   -913.810561               P   P
PC25  14935.205076   7433.549724  22367.444160   -501.074051               P   P
PC26  -6748.879892  26795.068866  -4040.488987    557.911431               P   P
PC27   2813.855025 -17289.863717 -21736.982212    272.692670               P   P
PC28  18653.492596  -2894.726154 -20546.548836    263.631327               P   P
PC29 -23996.655205 -12188.595539   7381.088305    183.488326               P   P
PC30 -15194.642765 -20979.560178 -10404.287123    267.038112               P   P
PC33  23330.750996   2110.136808 -15171.149412   -856.127059               P   P
PC34  15389.235064  20978.603687  10057.348511   -437.802060               P   P
PC35 -18684.130162   3438.640637  20458.476621   -831.583597               P   P
PC36 -14683.424855  -7991.982599 -22324.071782   -834.647788               P   P
PE01  -7120.356355 -17054.155336 -23120.864693   -785.451192               P   P
PE02   7162.191596  17014.471988  23140.318705    111.005235               P   P
PE03  18108.008649  14287.960306 -18561.754392   -260.833354               P   P
PE04 -29300.683762  -3464.105923   2387.691524   -456.807752               P   P
PE05  -3839.823671  16854.190021 -24030.943303   -407.795280               P   P
PE07  23395.580460  -9553.724790  15420.838496   -334.414354               P   P
PE08  29358.022134   3120.493921  -2217.080629   6227.046351               P   P
PE09 -23253.657366   9668.140662 -15544.704044   6170.104594               P   P
PE11 -12232.504669  11489.767551  24384.763475   1076.413762               P   P
PE12 -19738.238502  -9903.984567  19730.263020   5972.123334               P   P
PE13  12244.962433 -11283.497201 -24459.341267    398.997049               P   P
PE15  19691.214704   9625.420907 -19876.844776    879.705800               P   P
PE19 -16091.957035 -14903.653158  19878.617314     -0.685590               P   P
PE21   8998.549973 -26213.536569 -10389.560618   -579.437833               P   P
PE24 -20174.102144  19905.770857  -8600.947057   5632.044120               P   P
PE25  -9086.480302  26229.268504  10291.962621   -501.822508               P   P
PE26  -2356.451148 -25755.551663 -14381.830992   3576.659077               P   P
PE27  20019.822896 -20046.565561   8556.831144    291.801960               P   P
PE30  19222.276581  -1846.607201  22418.623699   4176.413748               P   P
PE31 -19240.213187   2150.300250 -22387.812814   -470.536469               P   P
PE33 -15601.368469 -24895.287806   3651.242015   -469.589328               P   P
PE36   2372.300616  25580.201637  14712.747896    604.462019               P   P
EOF
